sat_config_name,tle_name,norad_id,horizons_id,epoch_tle,t_obs,delta_t_min,incl_deg,raan_deg,ecc,argp_deg,M_deg,mean_motion_rev_per_day,x_sgp4,y_sgp4,z_sgp4,vx_sgp4,vy_sgp4,vz_sgp4,x_true,y_true,z_true,vx_true,vy_true,vz_true,err_x,err_y,err_z,err_vx,err_vy,err_vz,err_norm,horizons_ok,line1,line2
CHANDRA,CXO,25867,-151,2025-11-29T09:28:09.054336+00:00,2025-11-29T11:08:09.054336+00:00,100.0,52.7584,123.0489,0.8164697,310.7158,0.2585,0.37803381,-22228.43723714945,9232.584157443067,18110.06075289602,-2.064967635162291,-1.9427798397616038,3.6733941951396547,-22208.95631456997,9232.352705171557,18101.8712610104,-2.065719029823728,-1.9427809412706705,3.6755679142114706,-19.480922579481557,0.23145227150962455,8.189491885619645,0.0007513946614370326,1.101509066625539e-06,-0.0021737190718158494,21.13356789674596,True,1 25867U 99040B   25333.39454924  .00000722  00000+0  00000+0 0  9995,2 25867  52.7584 123.0489 8164697 310.7158   0.2585  0.37803381 16565
CHANDRA,CXO,25867,-151,2025-11-29T09:28:09.054336+00:00,2025-11-29T11:13:09.054336+00:00,105.0,52.7584,123.0489,0.8164697,310.7158,0.2585,0.37803381,-22833.998356482687,8643.713586675049,19200.937005543576,-1.9707763442514794,-1.9801690144210333,3.595414024828054,-22814.38300039065,8643.754301986559,19192.768119498076,-1.9714842400433965,-1.9802229698029172,3.597516135364824,-19.615356092035654,-0.040715311510211905,8.168886045499676,0.0007078957919171014,5.3955381883907805e-05,-0.0021021105367697857,21.24840115345884,True,1 25867U 99040B   25333.39454924  .00000722  00000+0  00000+0 0  9995,2 25867  52.7584 123.0489 8164697 310.7158   0.2585  0.37803381 16565
CHANDRA,CXO,25867,-151,2025-11-29T09:28:09.054336+00:00,2025-11-29T11:18:09.054336+00:00,110.0,52.7584,123.0489,0.8164697,310.7158,0.2585,0.37803381,-23412.182579786873,8044.469757985745,20268.80125536956,-1.8824744575677914,-2.0120526582526295,3.5200574941745604,-23392.436199377502,8044.769808071659,20260.64390347346,-1.8831442541603576,-2.0121518862358876,3.522092487739379,-19.74638040937134,-0.3000500859143358,8.15735189609768,0.0006697965925661631,9.92279832581211e-05,-0.0020349935648185102,21.367076526339066,True,1 25867U 99040B   25333.39454924  .00000722  00000+0  00000+0 0  9995,2 25867  52.7584 123.0489 8164697 310.7158   0.2585  0.37803381 16565
CHANDRA,CXO,25867,-151,2025-11-29T09:28:09.054336+00:00,2025-11-29T11:23:09.054336+00:00,115.0,52.7584,123.0489,0.8164697,310.7158,0.2585,0.37803381,-23964.684186208066,7436.393230198803,21314.43871014659,-1.7995782581994582,-2.0391559324166986,3.447303180378768,-23944.81046420391,7436.941482084178,21306.284375992822,-1.8002146809847535,-2.039294092337263,3.449275368268432,-19.873722004154843,-0.5482518853741567,8.154334153769014,0.0006364227852952986,0.00013815992056454007,-0.00197218788966369,21.488568400886283,True,1 25867U 99040B   25333.39454924  .00000722  00000+0  00000+0 0  9995,2 25867  52.7584 123.0489 8164697 310.7158   0.2585  0.37803381 16565
CHANDRA,CXO,25867,-151,2025-11-29T09:28:09.054336+00:00,2025-11-29T11:28:09.054336+00:00,120.0,52.7584,123.0489,0.8164697,310.7158,0.2585,0.37803381,-24493.05857499161,6820.82320980572,22338.623587186863,-1.7216459705755354,-2.0620984845740438,3.3771012041156383,-24473.061682084215,6821.60965048927,22330.46484017066,-1.7222531157806193,-2.062270265765551,3.379014641630417,-19.996892907394795,-0.7864406835506088,8.158747016201232,0.000607145205083981,0.000171781191507403,-0.001913437514778682,21.611556347772186,True,1 25867U 99040B   25333.39454924  .00000722  00000+0  00000+0 0  9995,2 25867  52.7584 123.0489 8164697 310.7158   0.2585  0.37803381 16565
CHANDRA,CXO,25867,-151,2025-11-29T09:28:09.054336+00:00,2025-11-29T11:33:09.054336+00:00,125.0,52.7584,123.0489,0.8164697,310.7158,0.2585,0.37803381,-24998.734520243277,6198.926659858303,23342.112019700733,-1.6482753778154124,-2.0814110302464024,3.3093823736239574,-24978.61874886948,6199.942513108184,23333.94191504959,-1.6488568369278653,-2.081611956195618,3.3112408828210285,-20.115771373795724,-1.0158532498817294,8.170104651144356,0.0005814591124528867,0.00020092594921550244,-0.0018585091970710899,21.735381887575965,True,1 25867U 99040B   25333.39454924  .00000722  00000+0  00000+0 0  9995,2 25867  52.7584 123.0489 8164697 310.7158   0.2585  0.37803381 16565
CHANDRA,CXO,25867,-151,2025-11-29T09:28:09.054336+00:00,2025-11-29T11:38:09.054336+00:00,130.0,52.7584,123.0489,0.8164697,310.7158,0.2585,0.37803381,-25483.025631989538,5571.722845579155,24325.637326562883,-1.579100986795588,-2.09754924541416,3.2440649149209277,-25462.79554511433,5572.960151620102,24317.44976868502,-1.5796598857781499,-2.0977755356055545,3.2458720528212592,-20.230086875206325,-1.23730604094726,8.187557877863583,0.000558898982561784,0.00022629019139452922,-0.0018071379003314902,21.85917302234295,True,1 25867U 99040B   25333.39454924  .00000722  00000+0  00000+0 0  9995,2 25867  52.7584 123.0489 8164697 310.7158   0.2585  0.37803381 16565
CHANDRA,CXO,25867,-151,2025-11-29T09:28:09.054336+00:00,2025-11-29T11:43:09.054336+00:00,135.0,52.7584,123.0489,0.8164697,310.7158,0.2585,0.37803381,-25947.140934771865,4940.104060348929,25289.907018240094,-1.5137910281135702,-2.1109053861675444,3.181059402641136,-25926.801298473714,4941.555531571808,25281.696696672858,-1.5143300915771947,-2.111153835089364,3.1828184680021154,-20.339636298151163,-1.4514712228792632,8.210321567235951,0.0005390634636244229,0.0002484489218197439,-0.0017590653609795837,21.98219628902751,True,1 25867U 99040B   25333.39454924  .00000722  00000+0  00000+0 0  9995,2 25867  52.7584 123.0489 8164697 310.7158   0.2585  0.37803381 16565
CHANDRA,CXO,25867,-151,2025-11-29T09:28:09.054336+00:00,2025-11-29T11:48:09.054336+00:00,140.0,52.7584,123.0489,0.8164697,310.7158,0.2585,0.37803381,-26392.19454307639,4304.8531587430825,26235.601070368444,-1.452044469415984,-2.121818002478913,3.1202723506331833,-26371.750095379834,4306.512316081893,26227.363022648726,-1.4525660996567753,-2.1220858771763234,3.1219864188451445,-20.4444476965582,-1.6591573388104734,8.238047719718452,0.0005216302407913265,0.0002678746974105195,-0.0017140682119611839,22.10415515066321,True,1 25867U 99040B   25333.39454924  .00000722  00000+0  00000+0 0  9995,2 25867  52.7584 123.0489 8164697 310.7158   0.2585  0.37803381 16565
CHANDRA,CXO,25867,-151,2025-11-29T09:28:09.054336+00:00,2025-11-29T11:53:09.054336+00:00,145.0,52.7584,123.0489,0.8164697,310.7158,0.2585,0.37803381,-26819.214455744466,3666.658419486382,27163.37111780283,-1.3935881482678314,-2.130580062030131,3.0616088048288055,-26798.670111910335,3668.519155687031,27155.101192212307,-1.3940944369341135,-2.130865029502727,3.063280707557082,-20.544343834131723,-1.8607362006487165,8.269925590524508,0.0005062886662821064,0.0002849674725959872,-0.001671902728276553,22.22440262540802,True,1 25867U 99040B   25333.39454924  .00000722  00000+0  00000+0 0  9995,2 25867  52.7584 123.0489 8164697 310.7158   0.2585  0.37803381 16565
CHANDRA,CXO,25867,-151,2025-11-29T09:28:09.054336+00:00,2025-11-29T11:58:09.054336+00:00,150.0,52.7584,123.0489,0.8164697,310.7158,0.2585,0.37803381,-27229.150514873745,3026.1261747889453,28073.840309338168,-1.3381740835360394,-2.137445751564533,3.0049741940308707,-27208.511100520678,3028.183016322947,28065.534613536453,-1.3386668837245408,-2.1377458091668666,3.0066065664924713,-20.639414353066968,-2.0568415340017054,8.305695801715046,0.0004928001885013966,0.00030005760233375867,-0.0016323724616005286,22.34279760200607,True,1 25867U 99040B   25333.39454924  .00000722  00000+0  00000+0 0  9995,2 25867  52.7584 123.0489 8164697 310.7158   0.2585  0.37803381 16565
CHANDRA,CXO,25867,-151,2025-11-29T09:28:09.054336+00:00,2025-11-29T12:03:09.054336+00:00,155.0,52.7584,123.0489,0.8164697,310.7158,0.2585,0.37803381,-27622.881587906046,2383.7915682720704,28967.603630748537,-1.2855769935928838,-2.142636179847408,2.9502756293686363,-27602.15203757702,2386.0392649473733,28959.25898166895,-1.286057922676576,-2.142949605921563,2.951870893504537,-20.729550329026097,-2.2476966753029046,8.344649079586816,0.00048092908369223863,0.00031342607415485446,-0.0015952641359007202,22.458841587429276,True,1 25867U 99040B   25333.39454924  .00000722  00000+0  00000+0 0  9995,2 25867  52.7584 123.0489 8164697 310.7158   0.2585  0.37803381 16565
CHANDRA,CXO,25867,-151,2025-11-29T09:28:09.054336+00:00,2025-11-29T12:08:09.054336+00:00,160.0,52.7584,123.0489,0.8164697,310.7158,0.2585,0.37803381,-28001.2220368002,1740.1277423135625,29845.22855316038,-1.2355920302661065,-2.146344168672593,2.8974227948890565,-27980.407156457008,1742.5615555715492,29836.841951602677,-1.2360625278854838,-2.1466694753763953,2.8989832039209666,-20.81488034319409,-2.433813257986685,8.386601557704125,0.00047049761937723034,0.00032530670380248594,-0.001560409031910126,22.57250044554047,True,1 25867U 99040B   25333.39454924  .00000722  00000+0  00000+0 0  9995,2 25867  52.7584 123.0489 8164697 310.7158   0.2585  0.37803381 16565
CHANDRA,CXO,25867,-151,2025-11-29T09:28:09.054336+00:00,2025-11-29T12:13:09.054336+00:00,165.0,52.7584,123.0489,0.8164697,310.7158,0.2585,0.37803381,-28364.92753880425,1095.5537048358203,30707.255900635388,-1.1880327255462488,-2.148738286363664,2.846328535775244,-28344.032195061376,1098.1690168392427,30698.82496786476,-1.1884940512478537,-2.149074186280454,2.8478561601895196,-20.89534374287541,-2.615312003422332,8.430932770628715,0.0004613257016048422,0.0003358999167897281,-0.0015276244142756745,22.683383221887972,True,1 25867U 99040B   25333.39454924  .00000722  00000+0  00000+0 0  9995,2 25867  52.7584 123.0489 8164697 310.7158   0.2585  0.37803381 16565
